$$SOE
2461302.500000000, A.D. 2026-Sep-19 00:00:00.0000, 2.607996055008309E+08, 2.523209327023556E+08, -3.805237148618098E+07,
2461309.500000000, A.D. 2026-Sep-26 00:00:00.0000, 2.518395285850461E+08, 2.590755187134317E+08, -3.827051086323208E+07,
2461316.500000000, A.D. 2026-Oct-03 00:00:00.0000, 2.426245650786668E+08, 2.655678555497713E+08, -3.844991300257596E+07,
2461323.500000000, A.D. 2026-Oct-10 00:00:00.0000, 2.331608352001243E+08, 2.717878613963142E+08, -3.858988819890667E+07,
2461330.500000000, A.D. 2026-Oct-17 00:00:00.0000, 2.234548572741665E+08, 2.777254443181743E+08, -3.868976574592222E+07,
2461337.500000000, A.D. 2026-Oct-24 00:00:00.0000, 2.135135625465420E+08, 2.833705143262563E+08, -3.874889588131924E+07,
2461344.500000000, A.D. 2026-Oct-31 00:00:00.0000, 2.033443102523337E+08, 2.887129966472224E+08, -3.876665189874715E+07,
2461351.500000000, A.D. 2026-Nov-07 00:00:00.0000, 1.929549032078986E+08, 2.937428463595995E+08, -3.874243245750548E+07,
2461358.500000000, A.D. 2026-Nov-14 00:00:00.0000, 1.823536040475282E+08, 2.984500653673863E+08, -3.867566404049271E+07,
2461365.500000000, A.D. 2026-Nov-21 00:00:00.0000, 1.715491501945666E+08, 3.028247224676558E+08, -3.856580333970213E+07,
2461372.500000000, A.D. 2026-Nov-28 00:00:00.0000, 1.605507664443793E+08, 3.068569735823362E+08, -3.841233972132920E+07,
2461379.500000000, A.D. 2026-Dec-05 00:00:00.0000, 1.493681786468248E+08, 3.105370815927138E+08, -3.821479815692289E+07,
2461386.500000000, A.D. 2026-Dec-12 00:00:00.0000, 1.380116285151059E+08, 3.138554389773657E+08, -3.797274238364683E+07,
2461393.500000000, A.D. 2026-Dec-19 00:00:00.0000, 1.264918875181435E+08, 3.168025933413501E+08, -3.768577812057781E+07,
2461400.500000000, A.D. 2026-Dec-26 00:00:00.0000, 1.148202695437097E+08, 3.193692750442750E+08, -3.735355639871636E+07,
2461407.500000000, A.D. 2027-Jan-02 00:00:00.0000, 1.030086424218438E+08, 3.215464268011650E+08, -3.697577704378280E+07,
2461414.500000000, A.D. 2027-Jan-09 00:00:00.0000, 9.106943822064079E+07, 3.233252353272375E+08, -3.655219231644887E+07,
2461421.500000000, A.D. 2027-Jan-16 00:00:00.0000, 7.901566212537652E+07, 3.246971650704567E+08, -3.608261070511721E+07,
2461428.500000000, A.D. 2027-Jan-23 00:00:00.0000, 6.686089970305534E+07, 3.256539940091526E+08, -3.556690086816309E+07,
2461435.500000000, A.D. 2027-Jan-30 00:00:00.0000, 5.461932247711603E+07, 3.261878514632991E+08, -3.500499573302722E+07,
2461442.500000000, A.D. 2027-Feb-06 00:00:00.0000, 4.230569195608243E+07, 3.262912582337185E+08, -3.439689674661881E+07,
2461449.500000000, A.D. 2027-Feb-13 00:00:00.0000, 2.993536136134919E+07, 3.259571702388402E+08, -3.374267811605608E+07,
2461456.500000000, A.D. 2027-Feb-20 00:00:00.0000, 1.752427238629433E+07, 3.251790247698880E+08, -3.304249086384603E+07,
2461463.500000000, A.D. 2027-Feb-27 00:00:00.0000, 5.088948058360972E+06, 3.239507860203223E+08, -3.229656705719344E+07,
2461470.500000000, A.D. 2027-Mar-06 00:00:00.0000, -7.353515612026379E+06, 3.222669916611634E+08, -3.150522429995021E+07,
2461477.500000000, A.D. 2027-Mar-13 00:00:00.0000, -1.978546112206495E+07, 3.201228023175147E+08, -3.066887013894092E+07,
2461484.500000000, A.D. 2027-Mar-20 00:00:00.0000, -3.218868556381754E+07, 3.175140528608012E+08, -2.978800630785887E+07,
2461491.500000000, A.D. 2027-Mar-27 00:00:00.0000, -4.454446143063623E+07, 3.144373046691487E+08, -2.886323282602453E+07,
2461498.500000000, A.D. 2027-Apr-03 00:00:00.0000, -5.683356225103029E+07, 3.108898984596509E+08, -2.789525192445366E+07,
2461505.500000000, A.D. 2027-Apr-10 00:00:00.0000, -6.903629327902484E+07, 3.068700073134927E+08, -2.688487174870335E+07,
2461512.500000000, A.D. 2027-Apr-17 00:00:00.0000, -8.113252748048727E+07, 3.023766894224490E+08, -2.583300978337587E+07,
2461519.500000000, A.D. 2027-Apr-24 00:00:00.0000, -9.310174696023737E+07, 2.974099399823177E+08, -2.474069594867688E+07,
2461526.500000000, A.D. 2027-May-01 00:00:00.0000, -1.049230897076137E+08, 2.919707416950047E+08, -2.360907532923187E+07,
2461533.500000000, A.D. 2027-May-08 00:00:00.0000, -1.165754014750903E+08, 2.860611140117387E+08, -2.243941043519287E+07,
2461540.500000000, A.D. 2027-May-15 00:00:00.0000, -1.280372943434102E+08, 2.796841614144794E+08, -2.123308271354596E+07,
2461547.500000000, A.D. 2027-May-22 00:00:00.0000, -1.392872135083650E+08, 2.728441174488102E+08, -1.999159331098107E+07,
2461554.500000000, A.D. 2027-May-29 00:00:00.0000, -1.503035088156032E+08, 2.655463822963839E+08, -1.871656344596322E+07,
2461561.500000000, A.D. 2027-Jun-05 00:00:00.0000, -1.610645099633779E+08, 2.577975562634684E+08, -1.740973415047149E+07,
2461568.500000000, A.D. 2027-Jun-12 00:00:00.0000, -1.715486070769713E+08, 2.496054688710708E+08, -1.607296510523672E+07,
2461575.500000000, A.D. 2027-Jun-19 00:00:00.0000, -1.817343365650545E+08, 2.409792018628986E+08, -1.470823256116226E+07,
2461582.500000000, A.D. 2027-Jun-26 00:00:00.0000, -1.916004714490075E+08, 2.319291051401895E+08, -1.331762634760565E+07,
2461589.500000000, A.D. 2027-Jul-03 00:00:00.0000, -2.011261153926939E+08, 2.224668049449746E+08, -1.190334594290976E+07,
2461596.500000000, A.D. 2027-Jul-10 00:00:00.0000, -2.102907996450620E+08, 2.126052036747436E+08, -1.046769558556695E+07,
2461603.500000000, A.D. 2027-Jul-17 00:00:00.0000, -2.190745820033722E+08, 2.023584707433058E+08, -9.013078421474606E+06,
2461610.500000000, A.D. 2027-Jul-24 00:00:00.0000, -2.274581466887734E+08, 1.917420239771311E+08, -7.541989710374653E+06,
2461617.500000000, A.D. 2027-Jul-31 00:00:00.0000, -2.354229036871294E+08, 1.807725014516225E+08, -6.057009129360043E+06,
2461624.500000000, A.D. 2027-Aug-07 00:00:00.0000, -2.429510866521425E+08, 1.694677247218336E+08, -4.560792096904308E+06,
2461631.500000000, A.D. 2027-Aug-14 00:00:00.0000, -2.500258505202002E+08, 1.578466531480857E+08, -3.056059980301782E+06,
2461638.500000000, A.D. 2027-Aug-21 00:00:00.0000, -2.566313670299987E+08, 1.459293260692149E+08, -1.545589587371163E+06,
2461645.500000000, A.D. 2027-Aug-28 00:00:00.0000, -2.627529134990582E+08, 1.337367942905160E+08, -3.220224053460360E+04,
2461652.500000000, A.D. 2027-Sep-04 00:00:00.0000, -2.683769548570809E+08, 1.212910437930776E+08, 1.481247781384401E+06,
2461659.500000000, A.D. 2027-Sep-11 00:00:00.0000, -2.734912192374837E+08, 1.086149115844249E+08, 2.991885389851272E+06,
2461666.500000000, A.D. 2027-Sep-18 00:00:00.0000, -2.780847659851800E+08, 9.573199380112562E+07, 4.496827225757092E+06,
2461673.500000000, A.D. 2027-Sep-25 00:00:00.0000, -2.821480449385540E+08, 8.266654690183410E+07, 5.993194425275106E+06,
2461680.500000000, A.D. 2027-Oct-02 00:00:00.0000, -2.856729461137093E+08, 6.944338302456258E+07, 7.478125464707885E+06,
2461687.500000000, A.D. 2027-Oct-09 00:00:00.0000, -2.886528391110826E+08, 5.608776065308289E+07, 8.948788936586257E+06,
2461694.500000000, A.D. 2027-Oct-16 00:00:00.0000, -2.910826016855085E+08, 4.262527176546989E+07, 1.040239610154926E+07,
2461701.500000000, A.D. 2027-Oct-23 00:00:00.0000, -2.929586369010064E+08, 2.908172674154520E+07, 1.183621304940732E+07,
2461708.500000000, A.D. 2027-Oct-30 00:00:00.0000, -2.942788783603037E+08, 1.548303895017454E+07, 1.324757234860337E+07,
2461715.500000000, A.D. 2027-Nov-06 00:00:00.0000, -2.950427847219927E+08, 1.855111453820903E+06, 1.463388425559278E+07,
2461722.500000000, A.D. 2027-Nov-13 00:00:00.0000, -2.952513257259504E+08, -1.177627496739803E+07, 1.599264738083382E+07,
2461729.500000000, A.D. 2027-Nov-20 00:00:00.0000, -2.949069572384004E+08, -2.538557343249456E+07, 1.732145826576945E+07,
2461736.500000000, A.D. 2027-Nov-27 00:00:00.0000, -2.940135842603725E+08, -3.894757810251343E+07, 1.861801988085186E+07,
2461743.500000000, A.D. 2027-Dec-04 00:00:00.0000, -2.925765146121688E+08, -5.243752489459051E+07, 1.988014923732600E+07,
2461750.500000000, A.D. 2027-Dec-11 00:00:00.0000, -2.906024046618442E+08, -6.583118582068888E+07, 2.110578403380788E+07,
2461757.500000000, A.D. 2027-Dec-18 00:00:00.0000, -2.880991977471436E+08, -7.910495651128210E+07, 2.229298825323079E+07,
2461764.500000000, A.D. 2027-Dec-25 00:00:00.0000, -2.850760561316844E+08, -9.223593628668834E+07, 2.343995668333701E+07,
2461771.500000000, A.D. 2028-Jan-01 00:00:00.0000, -2.815432874887210E+08, -1.052020002721860E+08, 2.454501836236306E+07,
$$EOE